     2              NAVIGATION DATA     GPS                 RINEX VERSION / TYPE
RINEXSLX2 2.9.3     HEMISPHERE          9-JUL-18 12:37      PGM / RUN BY / DATE 
                                                            COMMENT             
                                                            COMMENT             
                                                            COMMENT             
                                                            COMMENT             
                                                            END OF HEADER       
23 18  5 22 16  0  0.0-2.167928032541D-04 4.547473508000D-13 0.000000000000D+00
    5.400000000000D+01 3.937500000000D+01 4.969492712659D-09-6.685652640957D-01
    2.333894371697D-06 1.250628917189D-02 8.711591361873D-06 5.153794298679D+03
    2.304000000000D+05 1.005828380460D-07-5.478275965349D-01 1.918524503470D-07
    9.436801839375D-01 2.027812500000D+02-2.363341400879D+00-8.361062555941D-09
    3.621579424060D-10 1.000000000000D+00 2.002000000000D+03 0.000000000000D+00
    2.000000000000D+00 0.000000000000D+00-2.002343535390D-08 5.400000000000D+01
    2.278860000000D+05 2.018000000000D+03 5.000000000000D+00 2.200000000000D+01
16 18  5 22 16  0  0.0 2.398574724754D-05-1.250555214700D-12 0.000000000000D+00
    1.810000000000D+02 2.843750000000D+00 3.958379167343D-09 1.579676362395D+00
    4.246830939720D-07 1.003577955766D-02 1.032277941576D-05 5.153641083270D+03
    2.304000000000D+05-1.359730958770D-07 1.642683427760D+00 1.545995473670D-07
    9.868593214012D-01 1.970000000000D+02 5.163650460397D-01-7.855327204415D-09
   -3.503717371797D-10 1.000000000000D+00 2.002000000000D+03 0.000000000000D+00
    2.000000000000D+00 0.000000000000D+00-1.071020960790D-08 1.810000000000D+02
    2.278860000000D+05 2.018000000000D+03 5.000000000000D+00 2.200000000000D+01
26 18  5 22 16  0  0.0-1.407470554090D-04 1.261923898470D-11 0.000000000000D+00
    4.700000000000D+01 1.343750000000D+00 4.695909888317D-09 2.465347265557D+00
    1.415610313240D-07 2.787749049540D-03 9.506940840496D-06 5.153664221317D+03
    2.304000000000D+05-9.126961230100D-08 1.542167148695D+00 7.450580596000D-09
    9.556263524918D-01 1.943750000000D+02 1.293969195904D-01-8.112123615253D-09
   -2.971552347946D-10 1.000000000000D+00 2.002000000000D+03 0.000000000000D+00
    2.000000000000D+00 0.000000000000D+00 7.450580596800D-09 4.700000000000D+01
    2.278860000000D+05 2.018000000000D+03 5.000000000000D+00 2.200000000000D+01
27 18  5 22 16  0  0.0 3.684493713020D-04-1.023181539300D-12 0.000000000000D+00
    4.500000000000D+01 4.465625000000D+01 4.249819878391D-09 6.581601392978D-01
    2.514570951150D-06 5.944625705968D-03 6.988644599048D-06 5.153685295612D+03
    2.304000000000D+05 7.450580596000D-09 2.604066314617D+00 1.303851604300D-08
    9.775628836989D-01 2.485312500000D+02 4.189668437352D-01-8.117480981265D-09
    6.893144268674D-11 1.000000000000D+00 2.002000000000D+03 0.000000000000D+00
    2.000000000000D+00 0.000000000000D+00 1.396983861900D-09 4.500000000000D+01
    2.278860000000D+05 2.018000000000D+03 5.000000000000D+00 2.200000000000D+01
